{
    "week": 288,
    "satellites": [
        {
            "Name": "GSAT0226 (GALILEO 31)",
            "Line1": "1 61183U 24167B   24290.28112538 -.00000009  00000+0  00000+0 0  9994",
            "Line2": "2 61183  55.4002 238.0295 0032887  97.9272 262.4096  1.71381403   478",
            "SatelliteNumber": "61183",
            "Classification": "U",
            "LaunchYear": "24",
            "LaunchNumber": "167",
            "PieceOfLaunch": "B",
            "EpochYear": "24",
            "EpochDay": 290.28112538,
            "FirstDerivativeMeanMotion": -9e-08,
            "SecondDerivativeMeanMotion": "00000+0",
            "BSTAR": "00000+0",
            "SetNumber": "999",
            "Inclination": 55.4002,
            "RAAN": 238.0295,
            "Eccentricity": 0.0032887,
            "ArgumentOfPerigee": 97.9272,
            "MeanAnomaly": 262.4096,
            "MeanMotion": 1.71381403,
            "RevolutionNumber": "47"
        }
    ]
}